{"type": "FeatureCollection", "features": [ {"type": "Feature", "properties": {"norad_id": 66839, "name": "STARLINK-35717", "group": "last-30-days", "lat": -53.622236864644776, "lon": 16.49721286485763, "alt_km": 413.5684466044404, "timestamp": "2025-12-24T05:51:18.326446+00:00", "meta": {"OBJECT_NAME": "STARLINK-35717", "OBJECT_ID": "2025-280U", "EPOCH": "2025-12-23T22:38:38.622912", "MEAN_MOTION": 15.52551254, "ECCENTRICITY": 0.0003504, "INCLINATION": 70.0008, "RA_OF_ASC_NODE": 167.6889, "ARG_OF_PERICENTER": 271.9785, "MEAN_ANOMALY": 88.1001, "EPHEMERIS_TYPE": 0, "CLASSIFICATION_TYPE": "U", "NORAD_CAT_ID": 66839, "ELEMENT_SET_NO": 999, "REV_AT_EPOCH": 467, "BSTAR": 0.0010102346, "MEAN_MOTION_DOT": 0.00062548, "MEAN_MOTION_DDOT": 0}, "tle": {"line1": "1 66839U 25280U   25357.94350258  .00062548  00000+0  10102-2 0  9997", "line2": "2 66839  70.0008 167.6889 0003504 271.9785  88.1001 15.52551254  4675"}}, "geometry": {"type": "Point", "coordinates": [16.49721286485763, -53.622236864644776]}}, {"type": "Feature", "properties": {"norad_id": 66840, "name": "STARLINK-35837", "group": "last-30-days", "lat": -56.74476348985096, "lon": 20.601645071802125, "alt_km": 413.5140729339755, "timestamp": "2025-12-24T05:51:18.326456+00:00", "meta": {"OBJECT_NAME": "STARLINK-35837", "OBJECT_ID": "2025-280V", "EPOCH": "2025-12-23T22:37:37.959744", "MEAN_MOTION": 15.52528644, "ECCENTRICITY": 0.00034435, "INCLINATION": 70.0006, "RA_OF_ASC_NODE": 167.6868, "ARG_OF_PERICENTER": 265.7396, "MEAN_ANOMALY": 94.3397, "EPHEMERIS_TYPE": 0, "CLASSIFICATION_TYPE": "U", "NORAD_CAT_ID": 66840, "ELEMENT_SET_NO": 999, "REV_AT_EPOCH": 467, "BSTAR": 0.0012859512, "MEAN_MOTION_DOT": 0.00079772, "MEAN_MOTION_DDOT": 0}, "tle": {"line1": "1 66840U 25280V   25357.94280046  .00079772  00000+0  12860-2 0  9996", "line2": "2 66840  70.0006 167.6868 0003443 265.7396  94.3397 15.52528644  4677"}}, "geometry": {"type": "Point", "coordinates": [20.601645071802125, -56.74476348985096]}}, {"type": "Feature", "properties": {"norad_id": 66841, "name": "STARLINK-35715", "group": "last-30-days", "lat": -58.175497164031206, "lon": 22.795167378449655, "alt_km": 413.4192654763383, "timestamp": "2025-12-24T05:51:18.326465+00:00", "meta": {"OBJECT_NAME": "STARLINK-35715", "OBJECT_ID": "2025-280W", "EPOCH": "2025-12-23T22:37:10.395552", "MEAN_MOTION": 15.5260533, "ECCENTRICITY": 0.00034281, "INCLINATION": 70.0006, "RA_OF_ASC_NODE": 167.6858, "ARG_OF_PERICENTER": 271.4446, "MEAN_ANOMALY": 88.6348, "EPHEMERIS_TYPE": 0, "CLASSIFICATION_TYPE": "U", "NORAD_CAT_ID": 66841, "ELEMENT_SET_NO": 999, "REV_AT_EPOCH": 467, "BSTAR": 0.0010380796, "MEAN_MOTION_DOT": 0.00064416, "MEAN_MOTION_DDOT": 0}, "tle": {"line1": "1 66841U 25280W   25357.94248143  .00064416  00000+0  10381-2 0  9994", "line2": "2 66841  70.0006 167.6858 0003428 271.4446  88.6348 15.52605330  4670"}}, "geometry": {"type": "Point", "coordinates": [22.795167378449655, -58.175497164031206]}}, {"type": "Feature", "properties": {"norad_id": 66842, "name": "STARLINK-35769", "group": "last-30-days", "lat": -59.64339337018386, "lon": 25.311075449781104, "alt_km": 413.7488156430454, "timestamp": "2025-12-24T05:51:18.326475+00:00", "meta": {"OBJECT_NAME": "STARLINK-35769", "OBJECT_ID": "2025-280X", "EPOCH": "2025-12-23T22:36:39.828960", "MEAN_MOTION": 15.52580933, "ECCENTRICITY": 0.00031073, "INCLINATION": 70.0006, "RA_OF_ASC_NODE": 167.6843, "ARG_OF_PERICENTER": 279.2696, "MEAN_ANOMALY": 80.814, "EPHEMERIS_TYPE": 0, "CLASSIFICATION_TYPE": "U", "NORAD_CAT_ID": 66842, "ELEMENT_SET_NO": 999, "REV_AT_EPOCH": 467, "BSTAR": 0.0016231427, "MEAN_MOTION_DOT": 0.00101193, "MEAN_MOTION_DDOT": 0}, "tle": {"line1": "1 66842U 25280X   25357.94212765  .00101193  00000+0  16231-2 0  9990", "line2": "2 66842  70.0006 167.6843 0003107 279.2696  80.8140 15.52580933  4677"}}, "geometry": {"type": "Point", "coordinates": [25.311075449781104, -59.64339337018386]}}, {"type": "Feature", "properties": {"norad_id": 66843, "name": "STARLINK-35997", "group": "last-30-days", "lat": -62.29064532635188, "lon": 30.756145201269316, "alt_km": 413.6053284115451, "timestamp": "2025-12-24T05:51:18.326487+00:00", "meta": {"OBJECT_NAME": "STARLINK-35997", "OBJECT_ID": "2025-280Y", "EPOCH": "2025-12-23T22:35:40.856640", "MEAN_MOTION": 15.52538437, "ECCENTRICITY": 0.00034595, "INCLINATION": 70.0009, "RA_OF_ASC_NODE": 167.6806, "ARG_OF_PERICENTER": 270.3638, "MEAN_ANOMALY": 89.7152, "EPHEMERIS_TYPE": 0, "CLASSIFICATION_TYPE": "U", "NORAD_CAT_ID": 66843, "ELEMENT_SET_NO": 999, "REV_AT_EPOCH": 467, "BSTAR": 0.00058607942, "MEAN_MOTION_DOT": 0.00036078, "MEAN_MOTION_DDOT": 0}, "tle": {"line1": "1 66843U 25280Y   25357.94144510  .00036078  00000+0  58608-3 0  9997", "line2": "2 66843  70.0009 167.6806 0003459 270.3638  89.7152 15.52538437  4671"}}, "geometry": {"type": "Point", "coordinates": [30.756145201269316, -62.29064532635188]}}, {"type": "Feature", "properties": {"norad_id": 66844, "name": "STARLINK-36073", "group": "last-30-days", "lat": -60.97446838590476, "lon": 27.879688699426264, "alt_km": 413.55479216066215, "timestamp": "2025-12-24T05:51:18.326499+00:00", "meta": {"OBJECT_NAME": "STARLINK-36073", "OBJECT_ID": "2025-280Z", "EPOCH": "2025-12-23T21:03:23.764032", "MEAN_MOTION": 15.52540585, "ECCENTRICITY": 0.00035038, "INCLINATION": 70.0006, "RA_OF_ASC_NODE": 167.8591, "ARG_OF_PERICENTER": 272.8008, "MEAN_ANOMALY": 87.2778, "EPHEMERIS_TYPE": 0, "CLASSIFICATION_TYPE": "U", "NORAD_CAT_ID": 66844, "ELEMENT_SET_NO": 999, "REV_AT_EPOCH": 463, "BSTAR": 0.00092852339, "MEAN_MOTION_DOT": 0.00057416, "MEAN_MOTION_DDOT": 0}, "tle": {"line1": "1 66844U 25280Z   25357.87735838  .00057416  00000+0  92852-3 0  9997", "line2": "2 66844  70.0006 167.8591 0003503 272.8008  87.2778 15.52540585  4630"}}, "geometry": {"type": "Point", "coordinates": [27.879688699426264, -60.97446838590476]}}, {"type": "Feature", "properties": {"norad_id": 66845, "name": "STARLINK-36068", "group": "last-30-days", "lat": -65.84414199938679, "lon": 41.14626064583611, "alt_km": 413.5797526540882, "timestamp": "2025-12-24T05:51:18.326508+00:00", "meta": {"OBJECT_NAME": "STARLINK-36068", "OBJECT_ID": "2025-280AA", "EPOCH": "2025-12-23T21:01:25.269024", "MEAN_MOTION": 15.52541223, "ECCENTRICITY": 0.00033792, "INCLINATION": 70.0008, "RA_OF_ASC_NODE": 167.8532, "ARG_OF_PERICENTER": 272.8571, "MEAN_ANOMALY": 87.223, "EPHEMERIS_TYPE": 0, "CLASSIFICATION_TYPE": "U", "NORAD_CAT_ID": 66845, "ELEMENT_SET_NO": 999, "REV_AT_EPOCH": 466, "BSTAR": 0.0010033226, "MEAN_MOTION_DOT": 0.00062092, "MEAN_MOTION_DDOT": 0}, "tle": {"line1": "1 66845U 25280AA  25357.87598691  .00062092  00000+0  10033-2 0  9998", "line2": "2 66845  70.0008 167.8532 0003379 272.8571  87.2230 15.52541223  4660"}}, "geometry": {"type": "Point", "coordinates": [41.14626064583611, -65.84414199938679]}}, {"type": "Feature", "properties": {"norad_id": 66846, "name": "STARLINK-36055", "group": "last-30-days", "lat": -63.57028973611464, "lon": 33.968013821118944, "alt_km": 413.52487432353155, "timestamp": "2025-12-24T05:51:18.326518+00:00", "meta": {"OBJECT_NAME": "STARLINK-36055", "OBJECT_ID": "2025-280AB", "EPOCH": "2025-12-23T22:35:11.125536", "MEAN_MOTION": 15.52552289, "ECCENTRICITY": 0.00034633, "INCLINATION": 70.0007, "RA_OF_ASC_NODE": 167.6792, "ARG_OF_PERICENTER": 272.1456, "MEAN_ANOMALY": 87.9334, "EPHEMERIS_TYPE": 0, "CLASSIFICATION_TYPE": "U", "NORAD_CAT_ID": 66846, "ELEMENT_SET_NO": 999, "REV_AT_EPOCH": 467, "BSTAR": 0.0010425497, "MEAN_MOTION_DOT": 0.00064572, "MEAN_MOTION_DDOT": 0}, "tle": {"line1": "1 66846U 25280AB  25357.94110099  .00064572  00000+0  10425-2 0  9999", "line2": "2 66846  70.0007 167.6792 0003463 272.1456  87.9334 15.52552289  4672"}}, "geometry": {"type": "Point", "coordinates": [33.968013821118944, -63.57028973611464]}}, {"type": "Feature", "properties": {"norad_id": 66847, "name": "STARLINK-36061", "group": "last-30-days", "lat": -64.76503028190072, "lon": 37.45163944995919, "alt_km": 413.43597046373725, "timestamp": "2025-12-24T05:51:18.326528+00:00", "meta": {"OBJECT_NAME": "STARLINK-36061", "OBJECT_ID": "2025-280AC", "EPOCH": "2025-12-23T21:01:54.870528", "MEAN_MOTION": 15.52553581, "ECCENTRICITY": 0.00034462, "INCLINATION": 70.0007, "RA_OF_ASC_NODE": 167.8543, "ARG_OF_PERICENTER": 271.1276, "MEAN_ANOMALY": 88.9516, "EPHEMERIS_TYPE": 0, "CLASSIFICATION_TYPE": "U", "NORAD_CAT_ID": 66847, "ELEMENT_SET_NO": 999, "REV_AT_EPOCH": 466, "BSTAR": 0.0013874029, "MEAN_MOTION_DOT": 0.00086226, "MEAN_MOTION_DDOT": 0}, "tle": {"line1": "1 66847U 25280AC  25357.87632952  .00086226  00000+0  13874-2 0  9990", "line2": "2 66847  70.0007 167.8543 0003446 271.1276  88.9516 15.52553581  4667"}}, "geometry": {"type": "Point", "coordinates": [37.45163944995919, -64.76503028190072]}}, {"type": "Feature", "properties": {"norad_id": 66848, "name": "STARLINK-36091", "group": "last-30-days", "lat": 4.2139901673348605, "lon": 56.98196298824542, "alt_km": 390.88942063271134, "timestamp": "2025-12-24T05:51:18.326538+00:00", "meta": {"OBJECT_NAME": "STARLINK-36091", "OBJECT_ID": "2025-281A", "EPOCH": "2025-12-23T22:00:01.999584", "MEAN_MOTION": 15.60047216, "ECCENTRICITY": 0.00012969, "INCLINATION": 43.0004, "RA_OF_ASC_NODE": 54.3869, "ARG_OF_PERICENTER": 270.4214, "MEAN_ANOMALY": 56.4556, "EPHEMERIS_TYPE": 0, "CLASSIFICATION_TYPE": "U", "NORAD_CAT_ID": 66848, "ELEMENT_SET_NO": 999, "REV_AT_EPOCH": 318, "BSTAR": -0.027238709, "MEAN_MOTION_DOT": -0.01990992, "MEAN_MOTION_DDOT": 0}, "tle": {"line1": "1 66848U 25281A   25357.91668981 -.01990992  00000+0 -27239-1 0  9994", "line2": "2 66848  43.0004  54.3869 0001296 270.4214  56.4556 15.60047216  3183"}}, "geometry": {"type": "Point", "coordinates": [56.98196298824542, 4.2139901673348605]}}]}